[{"OBJECT_NAME":"OBJECT AS","OBJECT_ID":"2023-085AS","EPOCH":"2026-03-09T22:43:55.521696","MEAN_MOTION":15.33336233,"ECCENTRICITY":0.00083243,"INCLINATION":97.4812,"RA_OF_ASC_NODE":180.8852,"ARG_OF_PERICENTER":80.6036,"MEAN_ANOMALY":279.6147,"EPHEMERIS_TYPE":0,"CLASSIFICATION_TYPE":"U","NORAD_CAT_ID":57044,"ELEMENT_SET_NO":999,"REV_AT_EPOCH":15162,"BSTAR":0.00067677795,"MEAN_MOTION_DOT":0.00021782,"MEAN_MOTION_DDOT":0},{"OBJECT_NAME":"STARLINK-35545","OBJECT_ID":"2025-236Z","EPOCH":"2026-03-09T11:38:15.582912","MEAN_MOTION":15.30191407,"ECCENTRICITY":0.0001675,"INCLINATION":53.16,"RA_OF_ASC_NODE":104.794,"ARG_OF_PERICENTER":77.205,"MEAN_ANOMALY":282.9138,"EPHEMERIS_TYPE":0,"CLASSIFICATION_TYPE":"U","NORAD_CAT_ID":66109,"ELEMENT_SET_NO":999,"REV_AT_EPOCH":2291,"BSTAR":0.00099837529,"MEAN_MOTION_DOT":0.00029319,"MEAN_MOTION_DDOT":0}]
